[{"OBJECT_NAME":"STARLINK-36051","OBJECT_ID":"2025-278C","EPOCH":"2026-03-09T12:46:51.640896","MEAN_MOTION":15.27605845,"ECCENTRICITY":0.00013901,"INCLINATION":43.0008,"RA_OF_ASC_NODE":115.3777,"ARG_OF_PERICENTER":291.3776,"MEAN_ANOMALY":68.6928,"EPHEMERIS_TYPE":0,"CLASSIFICATION_TYPE":"U","NORAD_CAT_ID":66793,"ELEMENT_SET_NO":999,"REV_AT_EPOCH":1518,"BSTAR":0.0011476926,"MEAN_MOTION_DOT":0.0003148,"MEAN_MOTION_DDOT":0},{"OBJECT_NAME":"OKEAN-1","OBJECT_ID":"1988-056A","EPOCH":"2026-03-09T21:19:04.260000","MEAN_MOTION":15.31672069,"ECCENTRICITY":0.00129431,"INCLINATION":82.4671,"RA_OF_ASC_NODE":262.7586,"ARG_OF_PERICENTER":168.0696,"MEAN_ANOMALY":192.0855,"EPHEMERIS_TYPE":0,"CLASSIFICATION_TYPE":"U","NORAD_CAT_ID":19274,"ELEMENT_SET_NO":999,"REV_AT_EPOCH":3511,"BSTAR":0.00038371192,"MEAN_MOTION_DOT":0.00011798,"MEAN_MOTION_DDOT":0}]
